GLOBALSTAR M067         
1 32263U 07048A   24340.00366616 -.00000002  00000+0  70713-3 0  9999
2 32263  51.9727 244.1258 0000767 354.5427  19.2626 12.40662128785621
GLOBALSTAR M070         
1 32264U 07048B   24339.84932667 -.00000059  00000+0  25146-3 0  9997
2 32264  51.9772   0.5312 0000393  73.9384  98.0340 12.62307207789121
GLOBALSTAR M066         
1 32265U 07048C   24340.12696410 -.00000032  00000+0  48073-3 0  9999
2 32265  51.9663 230.4990 0001345  52.9584 113.4580 12.42167915792203
GLOBALSTAR M068         
1 32266U 07048D   24339.82851574 -.00000074  00000+0  16608-3 0  9994
2 32266  51.9857 174.7211 0002095  79.1383 293.9814 12.62810684793009
GLOBALSTAR M079         
1 37188U 10054A   24340.01032021 -.00000086  00000+0  10172-3 0  9997
2 37188  52.0060  10.8933 0000344 162.0525 224.4215 12.62267892652613
GLOBALSTAR M074         
1 37189U 10054B   24340.11735330 -.00000083  00000+0  11496-3 0  9999
2 37189  52.0037   9.9176 0000239  73.0138 321.4324 12.62259881652629
GLOBALSTAR M076         
1 37190U 10054C   24339.85753510 -.00000083  00000+0  11638-3 0  9998
2 37190  52.0051  10.8648 0000059 242.6093 288.8536 12.62274246652236
GLOBALSTAR M077         
1 37191U 10054D   24339.96914297 -.00000085  00000+0  10197-3 0  9993
2 37191  52.0086 327.3260 0000336  57.4572 321.2533 12.62267783652623
